{
    "links": {
        "self": "http://www.neowsapp.com/rest/v1/neo/3408698?api_key=iIulBulltgU6a56xZRHN4H3l9WmuAYTsLGpBGhQ2"
    },
    "id": "3408698",
    "neo_reference_id": "3408698",
    "name": "(2008 GW20)",
    "designation": "2008 GW20",
    "nasa_jpl_url": "http://ssd.jpl.nasa.gov/sbdb.cgi?sstr=3408698",
    "absolute_magnitude_h": 22.1,
    "estimated_diameter": {
        "kilometers": {
            "estimated_diameter_min": 0.1010543415,
            "estimated_diameter_max": 0.2259643771
        },
        "meters": {
            "estimated_diameter_min": 101.054341542,
            "estimated_diameter_max": 225.9643771094
        },
        "miles": {
            "estimated_diameter_min": 0.0627922373,
            "estimated_diameter_max": 0.140407711
        },
        "feet": {
            "estimated_diameter_min": 331.5431259047,
            "estimated_diameter_max": 741.3529669956
        }
    },
    "is_potentially_hazardous_asteroid": false,
    "close_approach_data": [
        {
            "close_approach_date": "2008-04-04",
            "close_approach_date_full": "2008-Apr-04 18:44",
            "epoch_date_close_approach": 1207334640000,
            "relative_velocity": {
                "kilometers_per_second": "10.0231620033",
                "kilometers_per_hour": "36083.38321188",
                "miles_per_hour": "22420.8110851818"
            },
            "miss_distance": {
                "astronomical": "0.0153893259",
                "lunar": "5.9864477751",
                "kilometers": "2302210.375375833",
                "miles": "1430527.1928311754"
            },
            "orbiting_body": "Earth"
        },
        {
            "close_approach_date": "2010-03-02",
            "close_approach_date_full": "2010-Mar-02 17:05",
            "epoch_date_close_approach": 1267549500000,
            "relative_velocity": {
                "kilometers_per_second": "4.6363938392",
                "kilometers_per_hour": "16691.0178212004",
                "miles_per_hour": "10371.1493789565"
            },
            "miss_distance": {
                "astronomical": "1.2822542965",
                "lunar": "498.7969213385",
                "kilometers": "191822511.554748455",
                "miles": "119192981.628120479"
            },
            "orbiting_body": "Juptr"
        },
        {
            "close_approach_date": "2011-08-20",
            "close_approach_date_full": "2011-Aug-20 02:51",
            "epoch_date_close_approach": 1313808660000,
            "relative_velocity": {
                "kilometers_per_second": "16.7444103284",
                "kilometers_per_hour": "60279.8771824027",
                "miles_per_hour": "37455.5714636991"
            },
            "miss_distance": {
                "astronomical": "0.0271002772",
                "lunar": "10.5420078308",
                "kilometers": "4054143.745529564",
                "miles": "2519128.1099494232"
            },
            "orbiting_body": "Mars"
        },
        {
            "close_approach_date": "2041-04-19",
            "close_approach_date_full": "2041-Apr-19 01:37",
            "epoch_date_close_approach": 2249948220000,
            "relative_velocity": {
                "kilometers_per_second": "12.2646032718",
                "kilometers_per_hour": "44152.5717786301",
                "miles_per_hour": "27434.6910587827"
            },
            "miss_distance": {
                "astronomical": "0.036021603",
                "lunar": "14.012403567",
                "kilometers": "5388755.08278561",
                "miles": "3348417.140277018"
            },
            "orbiting_body": "Earth"
        }
    ],
    "orbital_data": {
        "orbit_id": "19",
        "orbit_determination_date": "2017-04-06 09:03:43",
        "first_observation_date": "2008-04-11",
        "last_observation_date": "2008-05-06",
        "data_arc_in_days": 25,
        "observations_used": 133,
        "orbit_uncertainty": "7",
        "minimum_orbit_intersection": ".0112654",
        "jupiter_tisserand_invariant": "3.256",
        "epoch_osculation": "2459000.5",
        "eccentricity": ".6124537926815856",
        "semi_major_axis": "2.378810255041762",
        "inclination": "1.767835643214898",
        "ascending_node_longitude": "43.33552331937701",
        "orbital_period": "1340.102847444829",
        "perihelion_distance": ".9218988922715847",
        "perihelion_argument": "120.4773271664332",
        "aphelion_distance": "3.835721617811938",
        "perihelion_time": "2458569.288717870415",
        "mean_anomaly": "115.838916291118",
        "mean_motion": ".2686360981072543",
        "equinox": "J2000",
        "orbit_class": {
            "orbit_class_type": "APO",
            "orbit_class_description": "Near-Earth asteroid orbits which cross the Earth’s orbit similar to that of 1862 Apollo",
            "orbit_class_range": "a (semi-major axis) > 1.0 AU; q (perihelion) < 1.017 AU"
        }
    },
    "is_sentry_object": false
}